{"type": "FeatureCollection", "features": [ {"type": "Feature", "properties": {"norad_id": 43262, "name": "GAOFEN-1 04", "group": "resource", "lat": 18.52818440122993, "lon": -136.11628454124875, "alt_km": 641.1444002923163, "timestamp": "2025-12-09T07:41:32.860548+00:00", "meta": {"OBJECT_NAME": "GAOFEN-1 04", "OBJECT_ID": "2018-031D", "EPOCH": "2025-12-08T22:49:56.519904", "MEAN_MOTION": 14.76437796, "ECCENTRICITY": 0.00012243, "INCLINATION": 98.0809, "RA_OF_ASC_NODE": 40.7852, "ARG_OF_PERICENTER": 56.1834, "MEAN_ANOMALY": 303.9492, "EPHEMERIS_TYPE": 0, "CLASSIFICATION_TYPE": "U", "NORAD_CAT_ID": 43262, "ELEMENT_SET_NO": 999, "REV_AT_EPOCH": 41461, "BSTAR": 0.00020758006, "MEAN_MOTION_DOT": 1.392e-05, "MEAN_MOTION_DDOT": 0}, "tle": {"line1": "1 43262U 18031D   25342.95134861  .00001392  00000+0  20758-3 0  9992", "line2": "2 43262  98.0809  40.7852 0001224  56.1834 303.9492 14.76437796414615"}}, "geometry": {"type": "Point", "coordinates": [-136.11628454124875, 18.52818440122993]}}, {"type": "Feature", "properties": {"norad_id": 43437, "name": "SENTINEL-3B", "group": "resource", "lat": -38.22661598997993, "lon": -138.31343765756785, "alt_km": 809.467002613178, "timestamp": "2025-12-09T07:41:32.860558+00:00", "meta": {"OBJECT_NAME": "SENTINEL-3B", "OBJECT_ID": "2018-039A", "EPOCH": "2025-12-08T18:53:20.894496", "MEAN_MOTION": 14.26740881, "ECCENTRICITY": 0.00015311, "INCLINATION": 98.627, "RA_OF_ASC_NODE": 48.0287, "ARG_OF_PERICENTER": 106.7171, "MEAN_ANOMALY": 253.4177, "EPHEMERIS_TYPE": 0, "CLASSIFICATION_TYPE": "U", "NORAD_CAT_ID": 43437, "ELEMENT_SET_NO": 999, "REV_AT_EPOCH": 39697, "BSTAR": 0.00014971501, "MEAN_MOTION_DOT": 3.19e-06, "MEAN_MOTION_DDOT": 0}, "tle": {"line1": "1 43437U 18039A   25342.78704739  .00000319  00000+0  14972-3 0  9991", "line2": "2 43437  98.6270  48.0287 0001531 106.7171 253.4177 14.26740881396971"}}, "geometry": {"type": "Point", "coordinates": [-138.31343765756785, -38.22661598997993]}}, {"type": "Feature", "properties": {"norad_id": 43461, "name": "GAOFEN-5 01", "group": "resource", "lat": 25.685951837469204, "lon": 130.31928144060996, "alt_km": 691.8389678460189, "timestamp": "2025-12-09T07:41:32.860569+00:00", "meta": {"OBJECT_NAME": "GAOFEN-5 01", "OBJECT_ID": "2018-043A", "EPOCH": "2025-12-08T21:07:26.099616", "MEAN_MOTION": 14.60403168, "ECCENTRICITY": 0.00012268, "INCLINATION": 98.432, "RA_OF_ASC_NODE": 305.7801, "ARG_OF_PERICENTER": 354.7896, "MEAN_ANOMALY": 5.329, "EPHEMERIS_TYPE": 0, "CLASSIFICATION_TYPE": "U", "NORAD_CAT_ID": 43461, "ELEMENT_SET_NO": 999, "REV_AT_EPOCH": 40391, "BSTAR": 0.00018217516, "MEAN_MOTION_DOT": 8.33e-06, "MEAN_MOTION_DDOT": 0}, "tle": {"line1": "1 43461U 18043A   25342.88016319  .00000833  00000+0  18218-3 0  9992", "line2": "2 43461  98.4320 305.7801 0001226 354.7896   5.3290 14.60403168403912"}}, "geometry": {"type": "Point", "coordinates": [130.31928144060996, 25.685951837469204]}}, {"type": "Feature", "properties": {"norad_id": 43484, "name": "GAOFEN-6", "group": "resource", "lat": -48.631036649549934, "lon": 56.66048365602086, "alt_km": 652.1043806479174, "timestamp": "2025-12-09T07:41:32.860580+00:00", "meta": {"OBJECT_NAME": "GAOFEN-6", "OBJECT_ID": "2018-048A", "EPOCH": "2025-12-08T23:46:59.503008", "MEAN_MOTION": 14.76553744, "ECCENTRICITY": 0.0013324, "INCLINATION": 97.8033, "RA_OF_ASC_NODE": 47.3836, "ARG_OF_PERICENTER": 74.3618, "MEAN_ANOMALY": 285.9061, "EPHEMERIS_TYPE": 0, "CLASSIFICATION_TYPE": "U", "NORAD_CAT_ID": 43484, "ELEMENT_SET_NO": 999, "REV_AT_EPOCH": 40532, "BSTAR": 0.00010673729, "MEAN_MOTION_DOT": 6.96e-06, "MEAN_MOTION_DDOT": 0}, "tle": {"line1": "1 43484U 18048A   25342.99096647  .00000696  00000+0  10674-3 0  9991", "line2": "2 43484  97.8033  47.3836 0013324  74.3618 285.9061 14.76553744405329"}}, "geometry": {"type": "Point", "coordinates": [56.66048365602086, -48.631036649549934]}}, {"type": "Feature", "properties": {"norad_id": 43585, "name": "GAOFEN-11 01", "group": "resource", "lat": -53.86654355721641, "lon": 56.19237885773294, "alt_km": 423.72161847632105, "timestamp": "2025-12-09T07:41:32.860590+00:00", "meta": {"OBJECT_NAME": "GAOFEN-11 01", "OBJECT_ID": "2018-063A", "EPOCH": "2025-12-08T22:37:29.849376", "MEAN_MOTION": 15.49045997, "ECCENTRICITY": 0.00046, "INCLINATION": 97.1561, "RA_OF_ASC_NODE": 45.9087, "ARG_OF_PERICENTER": 331.5673, "MEAN_ANOMALY": 28.5327, "EPHEMERIS_TYPE": 0, "CLASSIFICATION_TYPE": "U", "NORAD_CAT_ID": 43585, "ELEMENT_SET_NO": 999, "REV_AT_EPOCH": 41083, "BSTAR": 0.00017020674, "MEAN_MOTION_DOT": 9.137e-05, "MEAN_MOTION_DDOT": 0}, "tle": {"line1": "1 43585U 18063A   25342.94270659  .00009137  00000+0  17021-3 0  9994", "line2": "2 43585  97.1561  45.9087 0004600 331.5673  28.5327 15.49045997410833"}}, "geometry": {"type": "Point", "coordinates": [56.19237885773294, -53.86654355721641]}}, {"type": "Feature", "properties": {"norad_id": 43613, "name": "ICESAT-2", "group": "resource", "lat": -61.199472458622026, "lon": -116.53320893989128, "alt_km": 489.47909715291917, "timestamp": "2025-12-09T07:41:32.860600+00:00", "meta": {"OBJECT_NAME": "ICESAT-2", "OBJECT_ID": "2018-070A", "EPOCH": "2025-12-08T22:31:52.191264", "MEAN_MOTION": 15.28247513, "ECCENTRICITY": 0.00021642, "INCLINATION": 92.0044, "RA_OF_ASC_NODE": 239.7114, "ARG_OF_PERICENTER": 158.5623, "MEAN_ANOMALY": 201.5717, "EPHEMERIS_TYPE": 0, "CLASSIFICATION_TYPE": "U", "NORAD_CAT_ID": 43613, "ELEMENT_SET_NO": 999, "REV_AT_EPOCH": 40340, "BSTAR": 0.00055854259, "MEAN_MOTION_DOT": 0.00015376, "MEAN_MOTION_DDOT": 0}, "tle": {"line1": "1 43613U 18070A   25342.93879851  .00015376  00000+0  55854-3 0  9990", "line2": "2 43613  92.0044 239.7114 0002164 158.5623 201.5717 15.28247513403400"}}, "geometry": {"type": "Point", "coordinates": [-116.53320893989128, -61.199472458622026]}}, {"type": "Feature", "properties": {"norad_id": 43719, "name": "HYSIS", "group": "resource", "lat": -38.95923382075306, "lon": 52.85275228838429, "alt_km": 640.2335993241286, "timestamp": "2025-12-09T07:41:32.860610+00:00", "meta": {"OBJECT_NAME": "HYSIS", "OBJECT_ID": "2018-096A", "EPOCH": "2025-12-08T23:44:59.344800", "MEAN_MOTION": 14.78627369, "ECCENTRICITY": 0.00015448, "INCLINATION": 98.0099, "RA_OF_ASC_NODE": 45.9855, "ARG_OF_PERICENTER": 56.7572, "MEAN_ANOMALY": 303.3787, "EPHEMERIS_TYPE": 0, "CLASSIFICATION_TYPE": "U", "NORAD_CAT_ID": 43719, "ELEMENT_SET_NO": 999, "REV_AT_EPOCH": 37931, "BSTAR": 0.00020974536, "MEAN_MOTION_DOT": 1.484e-05, "MEAN_MOTION_DDOT": 0}, "tle": {"line1": "1 43719U 18096A   25342.98957575  .00001484  00000+0  20975-3 0  9991", "line2": "2 43719  98.0099  45.9855 0001544  56.7572 303.3787 14.78627369379310"}}, "geometry": {"type": "Point", "coordinates": [52.85275228838429, -38.95923382075306]}}, {"type": "Feature", "properties": {"norad_id": 43783, "name": "KAZSTSAT", "group": "resource", "lat": -56.8326552850966, "lon": 30.210802096450905, "alt_km": 572.8855078026081, "timestamp": "2025-12-09T07:41:32.860621+00:00", "meta": {"OBJECT_NAME": "KAZSTSAT", "OBJECT_ID": "2018-099AB", "EPOCH": "2025-12-08T15:55:53.453568", "MEAN_MOTION": 14.99334674, "ECCENTRICITY": 0.00061391, "INCLINATION": 97.4556, "RA_OF_ASC_NODE": 18.0238, "ARG_OF_PERICENTER": 346.9065, "MEAN_ANOMALY": 13.1998, "EPHEMERIS_TYPE": 0, "CLASSIFICATION_TYPE": "U", "NORAD_CAT_ID": 43783, "ELEMENT_SET_NO": 999, "REV_AT_EPOCH": 38275, "BSTAR": 0.00024607888, "MEAN_MOTION_DOT": 2.952e-05, "MEAN_MOTION_DDOT": 0}, "tle": {"line1": "1 43783U 18099AB  25342.66381312  .00002952  00000+0  24608-3 0  9998", "line2": "2 43783  97.4556  18.0238 0006139 346.9065  13.1998 14.99334674382753"}}, "geometry": {"type": "Point", "coordinates": [30.210802096450905, -56.8326552850966]}}, {"type": "Feature", "properties": {"norad_id": 43831, "name": "SAUDISAT 5A", "group": "resource", "lat": 31.790229501026797, "lon": 38.998000923965805, "alt_km": 482.5468170159038, "timestamp": "2025-12-09T07:41:32.860631+00:00", "meta": {"OBJECT_NAME": "SAUDISAT 5A", "OBJECT_ID": "2018-102A", "EPOCH": "2025-12-08T23:40:53.387328", "MEAN_MOTION": 15.25583708, "ECCENTRICITY": 0.00118205, "INCLINATION": 97.3353, "RA_OF_ASC_NODE": 43.2501, "ARG_OF_PERICENTER": 87.6912, "MEAN_ANOMALY": 272.568, "EPHEMERIS_TYPE": 0, "CLASSIFICATION_TYPE": "U", "NORAD_CAT_ID": 43831, "ELEMENT_SET_NO": 999, "REV_AT_EPOCH": 38665, "BSTAR": 0.0003226338, "MEAN_MOTION_DOT": 8.139e-05, "MEAN_MOTION_DDOT": 0}, "tle": {"line1": "1 43831U 18102A   25342.98672902  .00008139  00000+0  32263-3 0  9999", "line2": "2 43831  97.3353  43.2501 0011820  87.6912 272.5680 15.25583708386653"}}, "geometry": {"type": "Point", "coordinates": [38.998000923965805, 31.790229501026797]}}, {"type": "Feature", "properties": {"norad_id": 43833, "name": "SAUDISAT 5B", "group": "resource", "lat": 77.73376230298186, "lon": 9.920915925449124, "alt_km": 472.18158549542204, "timestamp": "2025-12-09T07:41:32.860642+00:00", "meta": {"OBJECT_NAME": "SAUDISAT 5B", "OBJECT_ID": "2018-102C", "EPOCH": "2025-12-08T23:28:26.353056", "MEAN_MOTION": 15.25938175, "ECCENTRICITY": 0.00125291, "INCLINATION": 97.3447, "RA_OF_ASC_NODE": 45.9735, "ARG_OF_PERICENTER": 90.1359, "MEAN_ANOMALY": 270.1315, "EPHEMERIS_TYPE": 0, "CLASSIFICATION_TYPE": "U", "NORAD_CAT_ID": 43833, "ELEMENT_SET_NO": 999, "REV_AT_EPOCH": 38676, "BSTAR": 0.00029446545, "MEAN_MOTION_DOT": 7.503e-05, "MEAN_MOTION_DDOT": 0}, "tle": {"line1": "1 43833U 18102C   25342.97808279  .00007503  00000+0  29447-3 0  9992", "line2": "2 43833  97.3447  45.9735 0012529  90.1359 270.1315 15.25938175386761"}}, "geometry": {"type": "Point", "coordinates": [9.920915925449124, 77.73376230298186]}}]}